CCSDS_OMM_VERS = 2.0
CREATION_DATE  = 
ORIGINATOR     = 

OBJECT_NAME    = STARLINK-36068
OBJECT_ID      = 2025-280AA
CENTER_NAME    = EARTH
REF_FRAME      = TEME
TIME_SYSTEM    = UTC
MEAN_ELEMENT_THEORY = SGP/SGP4

EPOCH          = 2025-12-30T14:00:01.999872
MEAN_MOTION    = 15.44465511
ECCENTRICITY   = .00036198
INCLINATION    = 70.0004
RA_OF_ASC_NODE = 149.5084
ARG_OF_PERICENTER = 273.1723
MEAN_ANOMALY   = 97.8991

EPHEMERIS_TYPE = 0
CLASSIFICATION_TYPE = U
NORAD_CAT_ID   = 66845
ELEMENT_SET_NO = 999
REV_AT_EPOCH   = 576
BSTAR          = -.50623206E-1
MEAN_MOTION_DOT = -.2088256E-1
MEAN_MOTION_DDOT = 0

CCSDS_OMM_VERS = 2.0
CREATION_DATE  = 
ORIGINATOR     = 

OBJECT_NAME    = STARLINK-36055
OBJECT_ID      = 2025-280AB
CENTER_NAME    = EARTH
REF_FRAME      = TEME
TIME_SYSTEM    = UTC
MEAN_ELEMENT_THEORY = SGP/SGP4

EPOCH          = 2025-12-30T14:00:01.999872
MEAN_MOTION    = 15.37576939
ECCENTRICITY   = .00033493
INCLINATION    = 69.9996
RA_OF_ASC_NODE = 149.5856
ARG_OF_PERICENTER = 268.2472
MEAN_ANOMALY   = 35.9028

EPHEMERIS_TYPE = 0
CLASSIFICATION_TYPE = U
NORAD_CAT_ID   = 66846
ELEMENT_SET_NO = 999
REV_AT_EPOCH   = 576
BSTAR          = -.63102252E-1
MEAN_MOTION_DOT = -.206982E-1
MEAN_MOTION_DDOT = 0

CCSDS_OMM_VERS = 2.0
CREATION_DATE  = 
ORIGINATOR     = 

OBJECT_NAME    = STARLINK-36061
OBJECT_ID      = 2025-280AC
CENTER_NAME    = EARTH
REF_FRAME      = TEME
TIME_SYSTEM    = UTC
MEAN_ELEMENT_THEORY = SGP/SGP4

EPOCH          = 2025-12-30T14:00:01.999872
MEAN_MOTION    = 15.38326512
ECCENTRICITY   = .00035646
INCLINATION    = 69.9999
RA_OF_ASC_NODE = 149.5728
ARG_OF_PERICENTER = 270.9759
MEAN_ANOMALY   = 43.6745

EPHEMERIS_TYPE = 0
CLASSIFICATION_TYPE = U
NORAD_CAT_ID   = 66847
ELEMENT_SET_NO = 999
REV_AT_EPOCH   = 571
BSTAR          = -.62523489E-1
MEAN_MOTION_DOT = -.2098276E-1
MEAN_MOTION_DDOT = 0

CCSDS_OMM_VERS = 2.0
CREATION_DATE  = 
ORIGINATOR     = 

OBJECT_NAME    = STARLINK-36091
OBJECT_ID      = 2025-281A
CENTER_NAME    = EARTH
REF_FRAME      = TEME
TIME_SYSTEM    = UTC
MEAN_ELEMENT_THEORY = SGP/SGP4

EPOCH          = 2025-12-30T08:34:53.782752
MEAN_MOTION    = 15.50629761
ECCENTRICITY   = .0002963
INCLINATION    = 43.0029
RA_OF_ASC_NODE = 16.6331
ARG_OF_PERICENTER = 261.7172
MEAN_ANOMALY   = 98.3353

EPHEMERIS_TYPE = 0
CLASSIFICATION_TYPE = U
NORAD_CAT_ID   = 66848
ELEMENT_SET_NO = 999
REV_AT_EPOCH   = 556
BSTAR          = .17790059E-2
MEAN_MOTION_DOT = .105643E-2
MEAN_MOTION_DDOT = 0

CCSDS_OMM_VERS = 2.0
CREATION_DATE  = 
ORIGINATOR     = 

OBJECT_NAME    = STARLINK-36102
OBJECT_ID      = 2025-281B
CENTER_NAME    = EARTH
REF_FRAME      = TEME
TIME_SYSTEM    = UTC
MEAN_ELEMENT_THEORY = SGP/SGP4

EPOCH          = 2025-12-30T10:07:10.575552
MEAN_MOTION    = 15.50585664
ECCENTRICITY   = .00004288
INCLINATION    = 42.9976
RA_OF_ASC_NODE = 16.2506
ARG_OF_PERICENTER = 229.5769
MEAN_ANOMALY   = 130.5054

EPHEMERIS_TYPE = 0
CLASSIFICATION_TYPE = U
NORAD_CAT_ID   = 66849
ELEMENT_SET_NO = 999
REV_AT_EPOCH   = 557
BSTAR          = .18867376E-2
MEAN_MOTION_DOT = .111967E-2
MEAN_MOTION_DDOT = 0

CCSDS_OMM_VERS = 2.0
CREATION_DATE  = 
ORIGINATOR     = 

OBJECT_NAME    = STARLINK-36105
OBJECT_ID      = 2025-281C
CENTER_NAME    = EARTH
REF_FRAME      = TEME
TIME_SYSTEM    = UTC
MEAN_ELEMENT_THEORY = SGP/SGP4

EPOCH          = 2025-12-30T10:06:40.466016
MEAN_MOTION    = 15.50610309
ECCENTRICITY   = .0002353
INCLINATION    = 43.0021
RA_OF_ASC_NODE = 16.2509
ARG_OF_PERICENTER = 278.3078
MEAN_ANOMALY   = 81.7516

EPHEMERIS_TYPE = 0
CLASSIFICATION_TYPE = U
NORAD_CAT_ID   = 66850
ELEMENT_SET_NO = 999
REV_AT_EPOCH   = 557
BSTAR          = .17421617E-2
MEAN_MOTION_DOT = .103341E-2
MEAN_MOTION_DDOT = 0

CCSDS_OMM_VERS = 2.0
CREATION_DATE  = 
ORIGINATOR     = 

OBJECT_NAME    = STARLINK-36094
OBJECT_ID      = 2025-281D
CENTER_NAME    = EARTH
REF_FRAME      = TEME
TIME_SYSTEM    = UTC
MEAN_ELEMENT_THEORY = SGP/SGP4

EPOCH          = 2025-12-30T14:00:01.999872
MEAN_MOTION    = 15.50490306
ECCENTRICITY   = .00016215
INCLINATION    = 43.0006
RA_OF_ASC_NODE = 15.2978
ARG_OF_PERICENTER = 273.4428
MEAN_ANOMALY   = 274.1918

EPHEMERIS_TYPE = 0
CLASSIFICATION_TYPE = U
NORAD_CAT_ID   = 66851
ELEMENT_SET_NO = 999
REV_AT_EPOCH   = 424
BSTAR          = .22366585E-2
MEAN_MOTION_DOT = .1327E-2
MEAN_MOTION_DDOT = 0

CCSDS_OMM_VERS = 2.0
CREATION_DATE  = 
ORIGINATOR     = 

OBJECT_NAME    = STARLINK-35992
OBJECT_ID      = 2025-281E
CENTER_NAME    = EARTH
REF_FRAME      = TEME
TIME_SYSTEM    = UTC
MEAN_ELEMENT_THEORY = SGP/SGP4

EPOCH          = 2025-12-30T10:05:41.818560
MEAN_MOTION    = 15.50602299
ECCENTRICITY   = .00011517
INCLINATION    = 43.0011
RA_OF_ASC_NODE = 16.2453
ARG_OF_PERICENTER = 328.9819
MEAN_ANOMALY   = 31.0973

EPHEMERIS_TYPE = 0
CLASSIFICATION_TYPE = U
NORAD_CAT_ID   = 66852
ELEMENT_SET_NO = 999
REV_AT_EPOCH   = 557
BSTAR          = .18302062E-2
MEAN_MOTION_DOT = .108619E-2
MEAN_MOTION_DDOT = 0

CCSDS_OMM_VERS = 2.0
CREATION_DATE  = 
ORIGINATOR     = 

OBJECT_NAME    = STARLINK-35986
OBJECT_ID      = 2025-281F
CENTER_NAME    = EARTH
REF_FRAME      = TEME
TIME_SYSTEM    = UTC
MEAN_ELEMENT_THEORY = SGP/SGP4

EPOCH          = 2025-12-30T08:32:26.193408
MEAN_MOTION    = 15.50586459
ECCENTRICITY   = .00013156
INCLINATION    = 43.0014
RA_OF_ASC_NODE = 16.6182
ARG_OF_PERICENTER = 284.2238
MEAN_ANOMALY   = 75.8476

EPHEMERIS_TYPE = 0
CLASSIFICATION_TYPE = U
NORAD_CAT_ID   = 66853
ELEMENT_SET_NO = 999
REV_AT_EPOCH   = 556
BSTAR          = .2187006E-2
MEAN_MOTION_DOT = .130148E-2
MEAN_MOTION_DDOT = 0

CCSDS_OMM_VERS = 2.0
CREATION_DATE  = 
ORIGINATOR     = 

OBJECT_NAME    = STARLINK-36087
OBJECT_ID      = 2025-281G
CENTER_NAME    = EARTH
REF_FRAME      = TEME
TIME_SYSTEM    = UTC
MEAN_ELEMENT_THEORY = SGP/SGP4

EPOCH          = 2025-12-30T10:04:41.535552
MEAN_MOTION    = 15.50603609
ECCENTRICITY   = .00030139
INCLINATION    = 43.0007
RA_OF_ASC_NODE = 16.2394
ARG_OF_PERICENTER = 256.1541
MEAN_ANOMALY   = 103.8984

EPHEMERIS_TYPE = 0
CLASSIFICATION_TYPE = U
NORAD_CAT_ID   = 66854
ELEMENT_SET_NO = 999
REV_AT_EPOCH   = 557
BSTAR          = .17645833E-2
MEAN_MOTION_DOT = .104674E-2
MEAN_MOTION_DDOT = 0

CCSDS_OMM_VERS = 2.0
CREATION_DATE  = 
ORIGINATOR     = 

OBJECT_NAME    = STARLINK-36090
OBJECT_ID      = 2025-281H
CENTER_NAME    = EARTH
REF_FRAME      = TEME
TIME_SYSTEM    = UTC
MEAN_ELEMENT_THEORY = SGP/SGP4

EPOCH          = 2025-12-30T10:04:12.720288
MEAN_MOTION    = 15.50598839
ECCENTRICITY   = .00003486
INCLINATION    = 43.0006
RA_OF_ASC_NODE = 16.2358
ARG_OF_PERICENTER = 291.2482
MEAN_ANOMALY   = 68.8341

EPHEMERIS_TYPE = 0
CLASSIFICATION_TYPE = U
NORAD_CAT_ID   = 66855
ELEMENT_SET_NO = 999
REV_AT_EPOCH   = 557
BSTAR          = .18290532E-2
MEAN_MOTION_DOT = .108536E-2
MEAN_MOTION_DDOT = 0

CCSDS_OMM_VERS = 2.0
CREATION_DATE  = 
ORIGINATOR     = 

OBJECT_NAME    = STARLINK-36072
OBJECT_ID      = 2025-281J
CENTER_NAME    = EARTH
REF_FRAME      = TEME
TIME_SYSTEM    = UTC
MEAN_ELEMENT_THEORY = SGP/SGP4

EPOCH          = 2025-12-30T10:03:42.693696
MEAN_MOTION    = 15.50603183
ECCENTRICITY   = .00019091
INCLINATION    = 43.0013
RA_OF_ASC_NODE = 16.2324
ARG_OF_PERICENTER = 282.7354
MEAN_ANOMALY   = 77.3293

EPHEMERIS_TYPE = 0
CLASSIFICATION_TYPE = U
NORAD_CAT_ID   = 66856
ELEMENT_SET_NO = 999
REV_AT_EPOCH   = 557
BSTAR          = .19043668E-2
MEAN_MOTION_DOT = .113105E-2
MEAN_MOTION_DDOT = 0

